{
  "type": "FeatureCollection",
  "features": [
    {
      "type": "Feature",
      "properties": {
        "norad_id": 30837,
        "name": "FENGYUN 1C DEB",
        "group": "fengyun-1c-debris",
        "lat": -44.12372210396197,
        "lon": 139.71592530291878,
        "alt_km": 845.4408747331909,
        "timestamp": "2025-12-07T20:38:14.342769+00:00",
        "meta_object_name": "FENGYUN 1C DEB",
        "meta_object_id": "1999-025AVX",
        "meta_epoch": "2025-12-07T06:04:17.032224",
        "meta_mean_motion": 14.14511426,
        "meta_eccentricity": 0.00327362,
        "meta_inclination": 98.6781,
        "meta_ra_of_asc_node": 327.6445,
        "meta_arg_of_pericenter": 148.8669,
        "meta_mean_anomaly": 226.6331,
        "meta_ephemeris_type": 0,
        "meta_classification_type": "U",
        "meta_norad_cat_id": 30837,
        "meta_element_set_no": 999,
        "meta_rev_at_epoch": 96741,
        "meta_bstar": 0.00052990532,
        "meta_mean_motion_dot": 9.79e-06,
        "meta_mean_motion_ddot": 0,
        "tle_line1": "1 30837U 99025AVX 25341.25297491  .00000979  00000+0  52991-3 0  9993",
        "tle_line2": "2 30837  98.6781 327.6445 0032736 148.8669 226.6331 14.14511426967415"
      },
      "geometry": {
        "type": "Point",
        "coordinates": [
          139.71592530291878,
          -44.12372210396197
        ]
      }
    },
    {
      "type": "Feature",
      "properties": {
        "norad_id": 30838,
        "name": "FENGYUN 1C DEB",
        "group": "fengyun-1c-debris",
        "lat": 8.152116371511276,
        "lon": -105.91193368142049,
        "alt_km": 758.5323735992079,
        "timestamp": "2025-12-07T20:38:14.342779+00:00",
        "meta_object_name": "FENGYUN 1C DEB",
        "meta_object_id": "1999-025AVY",
        "meta_epoch": "2025-12-07T05:40:08.848128",
        "meta_mean_motion": 14.47584774,
        "meta_eccentricity": 0.00337015,
        "meta_inclination": 99.0425,
        "meta_ra_of_asc_node": 254.729,
        "meta_arg_of_pericenter": 175.9858,
        "meta_mean_anomaly": 184.1609,
        "meta_ephemeris_type": 0,
        "meta_classification_type": "U",
        "meta_norad_cat_id": 30838,
        "meta_element_set_no": 999,
        "meta_rev_at_epoch": 97234,
        "meta_bstar": 0.004035151,
        "meta_mean_motion_dot": 0.00014943,
        "meta_mean_motion_ddot": 0,
        "tle_line1": "1 30838U 99025AVY 25341.23621352  .00014943  00000+0  40352-2 0  9992",
        "tle_line2": "2 30838  99.0425 254.7290 0033701 175.9858 184.1609 14.47584774972344"
      },
      "geometry": {
        "type": "Point",
        "coordinates": [
          -105.91193368142049,
          8.152116371511276
        ]
      }
    },
    {
      "type": "Feature",
      "properties": {
        "norad_id": 30840,
        "name": "FENGYUN 1C DEB",
        "group": "fengyun-1c-debris",
        "lat": -74.70785399562209,
        "lon": 142.29917511843647,
        "alt_km": 792.2695202598579,
        "timestamp": "2025-12-07T20:38:14.342789+00:00",
        "meta_object_name": "FENGYUN 1C DEB",
        "meta_object_id": "1999-025AWA",
        "meta_epoch": "2025-12-06T23:44:14.330400",
        "meta_mean_motion": 14.61017578,
        "meta_eccentricity": 0.02184156,
        "meta_inclination": 98.0227,
        "meta_ra_of_asc_node": 352.5071,
        "meta_arg_of_pericenter": 28.6507,
        "meta_mean_anomaly": 332.6492,
        "meta_ephemeris_type": 0,
        "meta_classification_type": "U",
        "meta_norad_cat_id": 30840,
        "meta_element_set_no": 999,
        "meta_rev_at_epoch": 73047,
        "meta_bstar": 0.0011437028,
        "meta_mean_motion_dot": 7.832e-05,
        "meta_mean_motion_ddot": 0,
        "tle_line1": "1 30840U 99025AWA 25340.98905475  .00007832  00000+0  11437-2 0  9998",
        "tle_line2": "2 30840  98.0227 352.5071 0218415  28.6507 332.6492 14.61017578730477"
      },
      "geometry": {
        "type": "Point",
        "coordinates": [
          142.29917511843647,
          -74.70785399562209
        ]
      }
    },
    {
      "type": "Feature",
      "properties": {
        "norad_id": 30843,
        "name": "FENGYUN 1C DEB",
        "group": "fengyun-1c-debris",
        "lat": -57.168399084947254,
        "lon": -140.7375699679299,
        "alt_km": 748.5927038022382,
        "timestamp": "2025-12-07T20:38:14.342798+00:00",
        "meta_object_name": "FENGYUN 1C DEB",
        "meta_object_id": "1999-025AWD",
        "meta_epoch": "2025-12-06T22:03:49.542624",
        "meta_mean_motion": 14.52458949,
        "meta_eccentricity": 0.01488412,
        "meta_inclination": 98.843,
        "meta_ra_of_asc_node": 52.2333,
        "meta_arg_of_pericenter": 137.1135,
        "meta_mean_anomaly": 224.1781,
        "meta_ephemeris_type": 0,
        "meta_classification_type": "U",
        "meta_norad_cat_id": 30843,
        "meta_element_set_no": 999,
        "meta_rev_at_epoch": 99240,
        "meta_bstar": 0.00037598785,
        "meta_mean_motion_dot": 1.717e-05,
        "meta_mean_motion_ddot": 0,
        "tle_line1": "1 30843U 99025AWD 25340.91932341  .00001717  00000+0  37599-3 0  9990",
        "tle_line2": "2 30843  98.8430  52.2333 0148841 137.1135 224.1781 14.52458949992407"
      },
      "geometry": {
        "type": "Point",
        "coordinates": [
          -140.7375699679299,
          -57.168399084947254
        ]
      }
    },
    {
      "type": "Feature",
      "properties": {
        "norad_id": 30845,
        "name": "FENGYUN 1C DEB",
        "group": "fengyun-1c-debris",
        "lat": 51.229551692446,
        "lon": -27.558324697299913,
        "alt_km": 1056.0981328457283,
        "timestamp": "2025-12-07T20:38:14.342808+00:00",
        "meta_object_name": "FENGYUN 1C DEB",
        "meta_object_id": "1999-025AWF",
        "meta_epoch": "2025-12-06T19:06:35.072928",
        "meta_mean_motion": 13.76850857,
        "meta_eccentricity": 0.01920741,
        "meta_inclination": 98.3788,
        "meta_ra_of_asc_node": 342.0772,
        "meta_arg_of_pericenter": 286.6748,
        "meta_mean_anomaly": 254.3817,
        "meta_ephemeris_type": 0,
        "meta_classification_type": "U",
        "meta_norad_cat_id": 30845,
        "meta_element_set_no": 999,
        "meta_rev_at_epoch": 94161,
        "meta_bstar": 0.00060867357,
        "meta_mean_motion_dot": 6.48e-06,
        "meta_mean_motion_ddot": 0,
        "tle_line1": "1 30845U 99025AWF 25340.79623927  .00000648  00000+0  60867-3 0  9991",
        "tle_line2": "2 30845  98.3788 342.0772 0192074 286.6748 254.3817 13.76850857941615"
      },
      "geometry": {
        "type": "Point",
        "coordinates": [
          -27.558324697299913,
          51.229551692446
        ]
      }
    },
    {
      "type": "Feature",
      "properties": {
        "norad_id": 30846,
        "name": "FENGYUN 1C DEB",
        "group": "fengyun-1c-debris",
        "lat": -31.804043748430516,
        "lon": -31.218647510120093,
        "alt_km": 788.4165959716665,
        "timestamp": "2025-12-07T20:38:14.342819+00:00",
        "meta_object_name": "FENGYUN 1C DEB",
        "meta_object_id": "1999-025AWG",
        "meta_epoch": "2025-12-07T00:14:43.828800",
        "meta_mean_motion": 14.41497706,
        "meta_eccentricity": 0.00541178,
        "meta_inclination": 99.3207,
        "meta_ra_of_asc_node": 153.7006,
        "meta_arg_of_pericenter": 353.2901,
        "meta_mean_anomaly": 132.5614,
        "meta_ephemeris_type": 0,
        "meta_classification_type": "U",
        "meta_norad_cat_id": 30846,
        "meta_element_set_no": 999,
        "meta_rev_at_epoch": 97847,
        "meta_bstar": 0.0012959705,
        "meta_mean_motion_dot": 4.232e-05,
        "meta_mean_motion_ddot": 0,
        "tle_line1": "1 30846U 99025AWG 25341.01022950  .00004232  00000+0  12960-2 0  9990",
        "tle_line2": "2 30846  99.3207 153.7006 0054117 353.2901 132.5614 14.41497706978476"
      },
      "geometry": {
        "type": "Point",
        "coordinates": [
          -31.218647510120093,
          -31.804043748430516
        ]
      }
    },
    {
      "type": "Feature",
      "properties": {
        "norad_id": 30847,
        "name": "FENGYUN 1C DEB",
        "group": "fengyun-1c-debris",
        "lat": -4.764500586042051,
        "lon": 142.83401982096103,
        "alt_km": 793.1905944214241,
        "timestamp": "2025-12-07T20:38:14.342829+00:00",
        "meta_object_name": "FENGYUN 1C DEB",
        "meta_object_id": "1999-025AWH",
        "meta_epoch": "2025-12-07T03:58:18.227136",
        "meta_mean_motion": 14.16959864,
        "meta_eccentricity": 0.00653341,
        "meta_inclination": 98.7317,
        "meta_ra_of_asc_node": 141.4184,
        "meta_arg_of_pericenter": 344.2825,
        "meta_mean_anomaly": 70.656,
        "meta_ephemeris_type": 0,
        "meta_classification_type": "U",
        "meta_norad_cat_id": 30847,
        "meta_element_set_no": 999,
        "meta_rev_at_epoch": 95976,
        "meta_bstar": 0.002959396,
        "meta_mean_motion_dot": 6.029e-05,
        "meta_mean_motion_ddot": 0,
        "tle_line1": "1 30847U 99025AWH 25341.16548874  .00006029  00000+0  29594-2 0  9992",
        "tle_line2": "2 30847  98.7317 141.4184 0065334 344.2825  70.6560 14.16959864959764"
      },
      "geometry": {
        "type": "Point",
        "coordinates": [
          142.83401982096103,
          -4.764500586042051
        ]
      }
    }
  ]
}